[{"OBJECT_NAME":"STARLINK-36820","OBJECT_ID":"2026-038F","EPOCH":"2026-03-19T16:00:01.999584","MEAN_MOTION":15.6436793,"ECCENTRICITY":0.0001996,"INCLINATION":97.2858,"RA_OF_ASC_NODE":89.461,"ARG_OF_PERICENTER":85.9807,"MEAN_ANOMALY":31.0914,"EPHEMERIS_TYPE":0,"CLASSIFICATION_TYPE":"U","NORAD_CAT_ID":67966,"ELEMENT_SET_NO":999,"REV_AT_EPOCH":480,"BSTAR":-0.028899,"MEAN_MOTION_DOT":-0.02420251,"MEAN_MOTION_DDOT":0},{"OBJECT_NAME":"STARLINK-36819","OBJECT_ID":"2026-038G","EPOCH":"2026-03-19T16:00:01.999584","MEAN_MOTION":15.49203057,"ECCENTRICITY":0.0001198,"INCLINATION":97.2854,"RA_OF_ASC_NODE":89.3354,"ARG_OF_PERICENTER":83.312,"MEAN_ANOMALY":98.4808,"EPHEMERIS_TYPE":0,"CLASSIFICATION_TYPE":"U","NORAD_CAT_ID":67967,"ELEMENT_SET_NO":999,"REV_AT_EPOCH":480,"BSTAR":-0.00038158,"MEAN_MOTION_DOT":-0.00020799,"MEAN_MOTION_DDOT":0},{"OBJECT_NAME":"STARLINK-36812","OBJECT_ID":"2026-038H","EPOCH":"2026-03-19T16:00:01.999584","MEAN_MOTION":15.64752496,"ECCENTRICITY":0.0001937,"INCLINATION":97.2859,"RA_OF_ASC_NODE":89.4665,"ARG_OF_PERICENTER":81.2493,"MEAN_ANOMALY":50.828,"EPHEMERIS_TYPE":0,"CLASSIFICATION_TYPE":"U","NORAD_CAT_ID":67968,"ELEMENT_SET_NO":999,"REV_AT_EPOCH":480,"BSTAR":-0.028219,"MEAN_MOTION_DOT":-0.02402292,"MEAN_MOTION_DDOT":0},{"OBJECT_NAME":"STARLINK-36709","OBJECT_ID":"2026-038J","EPOCH":"2026-03-19T16:00:01.999584","MEAN_MOTION":15.64518145,"ECCENTRICITY":0.0001981,"INCLINATION":97.2859,"RA_OF_ASC_NODE":89.4717,"ARG_OF_PERICENTER":87.4376,"MEAN_ANOMALY":56.8769,"EPHEMERIS_TYPE":0,"CLASSIFICATION_TYPE":"U","NORAD_CAT_ID":67969,"ELEMENT_SET_NO":999,"REV_AT_EPOCH":480,"BSTAR":-0.028452,"MEAN_MOTION_DOT":-0.0239992,"MEAN_MOTION_DDOT":0},{"OBJECT_NAME":"STARLINK-36319","OBJECT_ID":"2026-038K","EPOCH":"2026-03-19T16:00:01.999584","MEAN_MOTION":15.59119336,"ECCENTRICITY":0.0001623,"INCLINATION":97.2849,"RA_OF_ASC_NODE":89.4515,"ARG_OF_PERICENTER":80.9433,"MEAN_ANOMALY":6.3138,"EPHEMERIS_TYPE":0,"CLASSIFICATION_TYPE":"U","NORAD_CAT_ID":67970,"ELEMENT_SET_NO":999,"REV_AT_EPOCH":477,"BSTAR":-0.033769,"MEAN_MOTION_DOT":-0.02318753,"MEAN_MOTION_DDOT":0},{"OBJECT_NAME":"STARLINK-36710","OBJECT_ID":"2026-038L","EPOCH":"2026-03-19T16:00:01.999584","MEAN_MOTION":15.65453509,"ECCENTRICITY":0.0001937,"INCLINATION":97.286,"RA_OF_ASC_NODE":89.4786,"ARG_OF_PERICENTER":86.803,"MEAN_ANOMALY":74.3686,"EPHEMERIS_TYPE":0,"CLASSIFICATION_TYPE":"U","NORAD_CAT_ID":67971,"ELEMENT_SET_NO":999,"REV_AT_EPOCH":480,"BSTAR":-0.027327,"MEAN_MOTION_DOT":-0.02393761,"MEAN_MOTION_DDOT":0},{"OBJECT_NAME":"STARLINK-36894","OBJECT_ID":"2026-038M","EPOCH":"2026-03-19T16:00:01.999584","MEAN_MOTION":15.65831999,"ECCENTRICITY":0.0001954,"INCLINATION":97.286,"RA_OF_ASC_NODE":89.4814,"ARG_OF_PERICENTER":89.1932,"MEAN_ANOMALY":80.5247,"EPHEMERIS_TYPE":0,"CLASSIFICATION_TYPE":"U","NORAD_CAT_ID":67972,"ELEMENT_SET_NO":999,"REV_AT_EPOCH":480,"BSTAR":-0.026973,"MEAN_MOTION_DOT":-0.02398347,"MEAN_MOTION_DDOT":0},{"OBJECT_NAME":"STARLINK-36900","OBJECT_ID":"2026-038N","EPOCH":"2026-03-19T16:00:01.999584","MEAN_MOTION":15.49164019,"ECCENTRICITY":0.0001316,"INCLINATION":97.2846,"RA_OF_ASC_NODE":89.3934,"ARG_OF_PERICENTER":116.2572,"MEAN_ANOMALY":203.5011,"EPHEMERIS_TYPE":0,"CLASSIFICATION_TYPE":"U","NORAD_CAT_ID":67973,"ELEMENT_SET_NO":999,"REV_AT_EPOCH":480,"BSTAR":-0.00019477,"MEAN_MOTION_DOT":-0.0001066,"MEAN_MOTION_DDOT":0},{"OBJECT_NAME":"STARLINK-36901","OBJECT_ID":"2026-038P","EPOCH":"2026-03-19T16:00:01.999584","MEAN_MOTION":15.65922332,"ECCENTRICITY":0.000202,"INCLINATION":97.286,"RA_OF_ASC_NODE":89.4837,"ARG_OF_PERICENTER":84.5713,"MEAN_ANOMALY":91.7677,"EPHEMERIS_TYPE":0,"CLASSIFICATION_TYPE":"U","NORAD_CAT_ID":67974,"ELEMENT_SET_NO":999,"REV_AT_EPOCH":480,"BSTAR":-0.026834,"MEAN_MOTION_DOT":-0.02395204,"MEAN_MOTION_DDOT":0},{"OBJECT_NAME":"STARLINK-36883","OBJECT_ID":"2026-038Q","EPOCH":"2026-03-19T16:00:01.999584","MEAN_MOTION":15.62177146,"ECCENTRICITY":0.0002034,"INCLINATION":97.2854,"RA_OF_ASC_NODE":89.4867,"ARG_OF_PERICENTER":96.6787,"MEAN_ANOMALY":85.8984,"EPHEMERIS_TYPE":0,"CLASSIFICATION_TYPE":"U","NORAD_CAT_ID":67975,"ELEMENT_SET_NO":999,"REV_AT_EPOCH":480,"BSTAR":-0.031001,"MEAN_MOTION_DOT":-0.02386171,"MEAN_MOTION_DDOT":0},{"OBJECT_NAME":"STARLINK-36880","OBJECT_ID":"2026-038R","EPOCH":"2026-03-19T16:00:01.999584","MEAN_MOTION":15.49199528,"ECCENTRICITY":0.0002055,"INCLINATION":97.2849,"RA_OF_ASC_NODE":89.369,"ARG_OF_PERICENTER":90.8035,"MEAN_ANOMALY":168.6918,"EPHEMERIS_TYPE":0,"CLASSIFICATION_TYPE":"U","NORAD_CAT_ID":67976,"ELEMENT_SET_NO":999,"REV_AT_EPOCH":480,"BSTAR":-0.00046395,"MEAN_MOTION_DOT":-0.00025253,"MEAN_MOTION_DDOT":0},{"OBJECT_NAME":"STARLINK-36904","OBJECT_ID":"2026-038S","EPOCH":"2026-03-19T16:00:01.999584","MEAN_MOTION":15.62011266,"ECCENTRICITY":0.0002126,"INCLINATION":97.2853,"RA_OF_ASC_NODE":89.4827,"ARG_OF_PERICENTER":88.2847,"MEAN_ANOMALY":84.7515,"EPHEMERIS_TYPE":0,"CLASSIFICATION_TYPE":"U","NORAD_CAT_ID":67977,"ELEMENT_SET_NO":999,"REV_AT_EPOCH":480,"BSTAR":-0.031203,"MEAN_MOTION_DOT":-0.02386303,"MEAN_MOTION_DDOT":0},{"OBJECT_NAME":"STARLINK-36364","OBJECT_ID":"2026-038T","EPOCH":"2026-03-19T16:00:01.999584","MEAN_MOTION":15.68058356,"ECCENTRICITY":0.000197,"INCLINATION":97.2859,"RA_OF_ASC_NODE":89.5089,"ARG_OF_PERICENTER":90.8643,"MEAN_ANOMALY":149.9892,"EPHEMERIS_TYPE":0,"CLASSIFICATION_TYPE":"U","NORAD_CAT_ID":67978,"ELEMENT_SET_NO":999,"REV_AT_EPOCH":480,"BSTAR":-0.024607,"MEAN_MOTION_DOT":-0.02395682,"MEAN_MOTION_DDOT":0},{"OBJECT_NAME":"STARLINK-36359","OBJECT_ID":"2026-038U","EPOCH":"2026-03-19T16:00:01.999584","MEAN_MOTION":15.63966908,"ECCENTRICITY":0.0001951,"INCLINATION":97.2859,"RA_OF_ASC_NODE":89.4859,"ARG_OF_PERICENTER":91.7862,"MEAN_ANOMALY":90.1519,"EPHEMERIS_TYPE":0,"CLASSIFICATION_TYPE":"U","NORAD_CAT_ID":67979,"ELEMENT_SET_NO":999,"REV_AT_EPOCH":480,"BSTAR":-0.029206,"MEAN_MOTION_DOT":-0.02408837,"MEAN_MOTION_DDOT":0},{"OBJECT_NAME":"STARLINK-36882","OBJECT_ID":"2026-038V","EPOCH":"2026-03-19T16:00:01.999584","MEAN_MOTION":15.61290102,"ECCENTRICITY":0.0002108,"INCLINATION":97.2855,"RA_OF_ASC_NODE":89.4865,"ARG_OF_PERICENTER":92.9582,"MEAN_ANOMALY":89.1034,"EPHEMERIS_TYPE":0,"CLASSIFICATION_TYPE":"U","NORAD_CAT_ID":67980,"ELEMENT_SET_NO":999,"REV_AT_EPOCH":480,"BSTAR":-0.032099,"MEAN_MOTION_DOT":-0.0238682,"MEAN_MOTION_DDOT":0},{"OBJECT_NAME":"STARLINK-36874","OBJECT_ID":"2026-038W","EPOCH":"2026-03-19T16:00:01.999584","MEAN_MOTION":15.68581576,"ECCENTRICITY":0.0001917,"INCLINATION":97.286,"RA_OF_ASC_NODE":89.5107,"ARG_OF_PERICENTER":98.5183,"MEAN_ANOMALY":150.8579,"EPHEMERIS_TYPE":0,"CLASSIFICATION_TYPE":"U","NORAD_CAT_ID":67981,"ELEMENT_SET_NO":999,"REV_AT_EPOCH":480,"BSTAR":-0.024185,"MEAN_MOTION_DOT":-0.02404625,"MEAN_MOTION_DDOT":0},{"OBJECT_NAME":"STARLINK-36879","OBJECT_ID":"2026-038X","EPOCH":"2026-03-19T16:00:01.999584","MEAN_MOTION":15.49206658,"ECCENTRICITY":0.000118,"INCLINATION":97.2848,"RA_OF_ASC_NODE":89.4072,"ARG_OF_PERICENTER":78.0458,"MEAN_ANOMALY":270.3185,"EPHEMERIS_TYPE":0,"CLASSIFICATION_TYPE":"U","NORAD_CAT_ID":67982,"ELEMENT_SET_NO":999,"REV_AT_EPOCH":480,"BSTAR":-0.00018773,"MEAN_MOTION_DOT":-0.00010293,"MEAN_MOTION_DDOT":0}]
