STARLINK-36820          
1 67966U 26038F   26078.66668981 -.02420251  00000+0 -28899-1 0  9990
2 67966  97.2858  89.4610 0001996  85.9807  31.0914 15.64367930  4809
STARLINK-36819          
1 67967U 26038G   26078.66668981 -.00020799  00000+0 -38158-3 0  9993
2 67967  97.2854  89.3354 0001198  83.3120  98.4808 15.49203057  4805
STARLINK-36812          
1 67968U 26038H   26078.66668981 -.02402292  00000+0 -28219-1 0  9993
2 67968  97.2859  89.4665 0001937  81.2493  50.8280 15.64752496  4807
STARLINK-36709          
1 67969U 26038J   26078.66668981 -.02399920  00000+0 -28452-1 0  9996
2 67969  97.2859  89.4717 0001981  87.4376  56.8769 15.64518145  4802
STARLINK-36319          
1 67970U 26038K   26078.66668981 -.02318753  00000+0 -33769-1 0  9990
2 67970  97.2849  89.4515 0001623  80.9433   6.3138 15.59119336  4773
STARLINK-36710          
1 67971U 26038L   26078.66668981 -.02393761  00000+0 -27327-1 0  9996
2 67971  97.2860  89.4786 0001937  86.8030  74.3686 15.65453509  4800
STARLINK-36894          
1 67972U 26038M   26078.66668981 -.02398347  00000+0 -26973-1 0  9998
2 67972  97.2860  89.4814 0001954  89.1932  80.5247 15.65831999  4804
STARLINK-36900          
1 67973U 26038N   26078.66668981 -.00010660  00000+0 -19477-3 0  9999
2 67973  97.2846  89.3934 0001316 116.2572 203.5011 15.49164019  4805
STARLINK-36901          
1 67974U 26038P   26078.66668981 -.02395204  00000+0 -26834-1 0  9995
2 67974  97.2860  89.4837 0002020  84.5713  91.7677 15.65922332  4805
STARLINK-36883          
1 67975U 26038Q   26078.66668981 -.02386171  00000+0 -31001-1 0  9991
2 67975  97.2854  89.4867 0002034  96.6787  85.8984 15.62177146  4809
STARLINK-36880          
1 67976U 26038R   26078.66668981 -.00025253  00000+0 -46395-3 0  9995
2 67976  97.2849  89.3690 0002055  90.8035 168.6918 15.49199528  4802
STARLINK-36904          
1 67977U 26038S   26078.66668981 -.02386303  00000+0 -31203-1 0  9994
2 67977  97.2853  89.4827 0002126  88.2847  84.7515 15.62011266  4800
STARLINK-36364          
1 67978U 26038T   26078.66668981 -.02395682  00000+0 -24607-1 0  9995
2 67978  97.2859  89.5089 0001970  90.8643 149.9892 15.68058356  4806
STARLINK-36359          
1 67979U 26038U   26078.66668981 -.02408837  00000+0 -29206-1 0  9993
2 67979  97.2859  89.4859 0001951  91.7862  90.1519 15.63966908  4802
STARLINK-36882          
1 67980U 26038V   26078.66668981 -.02386820  00000+0 -32099-1 0  9996
2 67980  97.2855  89.4865 0002108  92.9582  89.1034 15.61290102  4808
STARLINK-36874          
1 67981U 26038W   26078.66668981 -.02404625  00000+0 -24185-1 0  9998
2 67981  97.2860  89.5107 0001917  98.5183 150.8579 15.68581576  4806
STARLINK-36879          
1 67982U 26038X   26078.66668981 -.00010293  00000+0 -18773-3 0  9999
2 67982  97.2848  89.4072 0001180  78.0458 270.3185 15.49206658  4808
